{
  "type": "FeatureCollection",
  "features": [
    {
      "type": "Feature",
      "properties": {
        "norad_id": 66604,
        "name": "STARLINK-35977",
        "group": "last-30-days",
        "lat": 2.3972131528374563,
        "lon": -64.91691910076722,
        "alt_km": 443.5889656156305,
        "timestamp": "2025-12-25T16:53:13.370483+00:00",
        "meta_object_name": "STARLINK-35977",
        "meta_object_id": "2025-270S",
        "meta_epoch": "2025-12-24T15:13:54.734592",
        "meta_mean_motion": 15.40706407,
        "meta_eccentricity": 0.00028051,
        "meta_inclination": 43.0045,
        "meta_ra_of_asc_node": 123.8193,
        "meta_arg_of_pericenter": 275.2484,
        "meta_mean_anomaly": 84.8053,
        "meta_ephemeris_type": 0,
        "meta_classification_type": "U",
        "meta_norad_cat_id": 66604,
        "meta_element_set_no": 999,
        "meta_rev_at_epoch": 618,
        "meta_bstar": 0.0015432576,
        "meta_mean_motion_dot": 0.00064729,
        "meta_mean_motion_ddot": 0,
        "tle_line1": "1 66604U 25270S   25358.63466128  .00064729  00000+0  15433-2 0  9992",
        "tle_line2": "2 66604  43.0045 123.8193 0002805 275.2484  84.8053 15.40706407  6181"
      },
      "geometry": {
        "type": "Point",
        "coordinates": [
          -64.91691910076722,
          2.3972131528374563
        ]
      }
    },
    {
      "type": "Feature",
      "properties": {
        "norad_id": 66605,
        "name": "STARLINK-36052",
        "group": "last-30-days",
        "lat": -40.0945900903223,
        "lon": 2.092499614260735,
        "alt_km": 445.9154465520378,
        "timestamp": "2025-12-25T16:53:13.370493+00:00",
        "meta_object_name": "STARLINK-36052",
        "meta_object_id": "2025-270T",
        "meta_epoch": "2025-12-25T01:48:02.248992",
        "meta_mean_motion": 15.40710362,
        "meta_eccentricity": 0.00021613,
        "meta_inclination": 43.0017,
        "meta_ra_of_asc_node": 121.1029,
        "meta_arg_of_pericenter": 283.0282,
        "meta_mean_anomaly": 77.0333,
        "meta_ephemeris_type": 0,
        "meta_classification_type": "U",
        "meta_norad_cat_id": 66605,
        "meta_element_set_no": 999,
        "meta_rev_at_epoch": 625,
        "meta_bstar": 0.0010615344,
        "meta_mean_motion_dot": 0.00044314,
        "meta_mean_motion_ddot": 0,
        "tle_line1": "1 66605U 25270T   25359.07502603  .00044314  00000+0  10615-2 0  9996",
        "tle_line2": "2 66605  43.0017 121.1029 0002161 283.0282  77.0333 15.40710362  6256"
      },
      "geometry": {
        "type": "Point",
        "coordinates": [
          2.092499614260735,
          -40.0945900903223
        ]
      }
    },
    {
      "type": "Feature",
      "properties": {
        "norad_id": 66606,
        "name": "STARLINK-36063",
        "group": "last-30-days",
        "lat": -14.92968948702662,
        "lon": 100.6385453900768,
        "alt_km": 445.3433037734503,
        "timestamp": "2025-12-25T16:53:13.370504+00:00",
        "meta_object_name": "STARLINK-36063",
        "meta_object_id": "2025-270U",
        "meta_epoch": "2025-12-25T08:00:01.000224",
        "meta_mean_motion": 15.40651315,
        "meta_eccentricity": 0.00014523,
        "meta_inclination": 43.0004,
        "meta_ra_of_asc_node": 119.3991,
        "meta_arg_of_pericenter": 257.2676,
        "meta_mean_anomaly": 184.4137,
        "meta_ephemeris_type": 0,
        "meta_classification_type": "U",
        "meta_norad_cat_id": 66606,
        "meta_element_set_no": 999,
        "meta_rev_at_epoch": 605,
        "meta_bstar": 0.0013497881,
        "meta_mean_motion_dot": 0.00056407,
        "meta_mean_motion_ddot": 0,
        "tle_line1": "1 66606U 25270U   25359.33334491  .00056407  00000+0  13498-2 0  9992",
        "tle_line2": "2 66606  43.0004 119.3991 0001452 257.2676 184.4137 15.40651315  6057"
      },
      "geometry": {
        "type": "Point",
        "coordinates": [
          100.6385453900768,
          -14.92968948702662
        ]
      }
    },
    {
      "type": "Feature",
      "properties": {
        "norad_id": 66607,
        "name": "STARLINK-35993",
        "group": "last-30-days",
        "lat": -42.62279819617402,
        "lon": 18.39732268011002,
        "alt_km": 446.2533495198277,
        "timestamp": "2025-12-25T16:53:13.370514+00:00",
        "meta_object_name": "STARLINK-35993",
        "meta_object_id": "2025-270V",
        "meta_epoch": "2025-12-25T07:58:12.764352",
        "meta_mean_motion": 15.40752383,
        "meta_eccentricity": 0.00013096,
        "meta_inclination": 43.0008,
        "meta_ra_of_asc_node": 119.5881,
        "meta_arg_of_pericenter": 252.0675,
        "meta_mean_anomaly": 108.0039,
        "meta_ephemeris_type": 0,
        "meta_classification_type": "U",
        "meta_norad_cat_id": 66607,
        "meta_element_set_no": 999,
        "meta_rev_at_epoch": 619,
        "meta_bstar": 0.0012352485,
        "meta_mean_motion_dot": 0.00051736,
        "meta_mean_motion_ddot": 0,
        "tle_line1": "1 66607U 25270V   25359.33209218  .00051736  00000+0  12352-2 0  9999",
        "tle_line2": "2 66607  43.0008 119.5881 0001309 252.0675 108.0039 15.40752383  6190"
      },
      "geometry": {
        "type": "Point",
        "coordinates": [
          18.39732268011002,
          -42.62279819617402
        ]
      }
    },
    {
      "type": "Feature",
      "properties": {
        "norad_id": 66608,
        "name": "STARLINK-36036",
        "group": "last-30-days",
        "lat": -6.647387470029596,
        "lon": 110.05008825541375,
        "alt_km": 444.5152921883837,
        "timestamp": "2025-12-25T16:53:13.370524+00:00",
        "meta_object_name": "STARLINK-36036",
        "meta_object_id": "2025-270W",
        "meta_epoch": "2025-12-25T08:00:01.000224",
        "meta_mean_motion": 15.40658664,
        "meta_eccentricity": 0.00014117,
        "meta_inclination": 43.0004,
        "meta_ra_of_asc_node": 119.3687,
        "meta_arg_of_pericenter": 265.4778,
        "meta_mean_anomaly": 188.6275,
        "meta_ephemeris_type": 0,
        "meta_classification_type": "U",
        "meta_norad_cat_id": 66608,
        "meta_element_set_no": 999,
        "meta_rev_at_epoch": 605,
        "meta_bstar": 0.0012612429,
        "meta_mean_motion_dot": 0.00052674,
        "meta_mean_motion_ddot": 0,
        "tle_line1": "1 66608U 25270W   25359.33334491  .00052674  00000+0  12612-2 0  9993",
        "tle_line2": "2 66608  43.0004 119.3687 0001411 265.4778 188.6275 15.40658664  6053"
      },
      "geometry": {
        "type": "Point",
        "coordinates": [
          110.05008825541375,
          -6.647387470029596
        ]
      }
    },
    {
      "type": "Feature",
      "properties": {
        "norad_id": 66609,
        "name": "STARLINK-36034",
        "group": "last-30-days",
        "lat": 10.23278284218095,
        "lon": 128.34533746579808,
        "alt_km": 442.8382735325649,
        "timestamp": "2025-12-25T16:53:13.370534+00:00",
        "meta_object_name": "STARLINK-36034",
        "meta_object_id": "2025-270X",
        "meta_epoch": "2025-12-25T08:00:01.000224",
        "meta_mean_motion": 15.40640528,
        "meta_eccentricity": 0.00014858,
        "meta_inclination": 43.0002,
        "meta_ra_of_asc_node": 119.3096,
        "meta_arg_of_pericenter": 257.8939,
        "meta_mean_anomaly": 221.1062,
        "meta_ephemeris_type": 0,
        "meta_classification_type": "U",
        "meta_norad_cat_id": 66609,
        "meta_element_set_no": 999,
        "meta_rev_at_epoch": 605,
        "meta_bstar": 0.001559396,
        "meta_mean_motion_dot": 0.00065266,
        "meta_mean_motion_ddot": 0,
        "tle_line1": "1 66609U 25270X   25359.33334491  .00065266  00000+0  15594-2 0  9997",
        "tle_line2": "2 66609  43.0002 119.3096 0001485 257.8939 221.1062 15.40640528  6058"
      },
      "geometry": {
        "type": "Point",
        "coordinates": [
          128.34533746579808,
          10.23278284218095
        ]
      }
    },
    {
      "type": "Feature",
      "properties": {
        "norad_id": 66610,
        "name": "STARLINK-35680",
        "group": "last-30-days",
        "lat": -40.37354698140809,
        "lon": 51.53517156509259,
        "alt_km": 441.70652599276855,
        "timestamp": "2025-12-25T16:53:13.370546+00:00",
        "meta_object_name": "STARLINK-35680",
        "meta_object_id": "2025-270Y",
        "meta_epoch": "2025-12-25T07:51:45.723456",
        "meta_mean_motion": 15.40787466,
        "meta_eccentricity": 0.00077042,
        "meta_inclination": 42.9993,
        "meta_ra_of_asc_node": 119.5523,
        "meta_arg_of_pericenter": 290.7242,
        "meta_mean_anomaly": 69.2789,
        "meta_ephemeris_type": 0,
        "meta_classification_type": "U",
        "meta_norad_cat_id": 66610,
        "meta_element_set_no": 999,
        "meta_rev_at_epoch": 640,
        "meta_bstar": 0.0012072831,
        "meta_mean_motion_dot": 0.00050656,
        "meta_mean_motion_ddot": 0,
        "tle_line1": "1 66610U 25270Y   25359.32761254  .00050656  00000+0  12073-2 0  9995",
        "tle_line2": "2 66610  42.9993 119.5523 0007704 290.7242  69.2789 15.40787466  6406"
      },
      "geometry": {
        "type": "Point",
        "coordinates": [
          51.53517156509259,
          -40.37354698140809
        ]
      }
    }
  ]
}